ONEWEB-0319             
1 49105U 21075AG  25094.71794970  .00000022  00000+0  24584-4 0  9998
2 49105  87.9003  93.2143 0002089 102.6338 257.5027 13.17646144175864
ONEWEB-0323             
1 49106U 21075AH  25094.67699989 -.00000299  00000+0 -86784-3 0  9995
2 49106  87.8816  77.9046 0002183 107.1179 253.0189 13.12442496177035
ONEWEB-0329             
1 49107U 21075AJ  25094.72640461 -.00000005  00000+0 -47231-4 0  9993
2 49107  87.9005  93.2174 0001883  96.1444 263.9902 13.17649933175848
ONEWEB-0330             
1 49108U 21075AK  25094.72808222  .00000029  00000+0  41758-4 0  9997
2 49108  87.9003  93.2192 0001726  93.6719 266.4610 13.17650999175882
ONEWEB-0292             
1 49186U 21083A   25094.76349304  .00000240  00000+0  62203-3 0  9999
2 49186  87.8961  47.3924 0002024  85.7901 274.3459 13.13467533173377
ONEWEB-0303             
1 49187U 21083B   25094.66290403  .00000002  00000+0 -27157-4 0  9991
2 49187  87.9096  62.6256 0002083  90.0222 270.1149 13.18688020172185
ONEWEB-0306             
1 49188U 21083C   25094.65341551 -.00000017  00000+0 -75269-4 0  9996
2 49188  87.9096  62.6124 0001854  80.2662 279.8679 13.18683450172225
ONEWEB-0307             
1 49189U 21083D   25094.37668871  .00000131  00000+0  32331-3 0  9990
2 49189  87.8961  47.4724 0001641  74.8680 285.2631 13.13471588173329
